CTC1_L_00403016-03
1 29906U 24810KJ  26070.40836806  .00000000  00000+0  00000-0 0  9990
2 29906  75.0000 180.0000 0000000   0.0000   0.0000 12.90384021    10
CTC1_L_00403016-04
1 29907U 23389GR  26070.40836806  .00000000  00000+0  00000-0 0  9991
2 29907  75.0000 180.0000 0000000   0.0000  90.0000 12.90384021    10
CTC1_L_00403017-01
1 29908U 26714YG  26070.40836806  .00000000  00000+0  00000-0 0  9997
2 29908  75.0000 192.0000 0000000   0.0000 192.0000 12.90384021    17
CTC1_L_00403017-02
1 29909U 24152KH  26070.40836806  .00000000  00000+0  00000-0 0  9992
2 29909  75.0000 192.0000 0000000   0.0000 282.0000 12.90384021    18
CTC1_L_00403017-03
1 29910U 25274GZ  26070.40836806  .00000000  00000+0  00000-0 0  9990
2 29910  75.0000 192.0000 0000000   0.0000  12.0000 12.90384021    11
CTC1_L_00403017-04
1 29911U 25238FB  26070.40836806  .00000000  00000+0  00000-0 0  9991
2 29911  75.0000 192.0000 0000000   0.0000 102.0000 12.90384021    12
CTC1_L_00403018-01
1 29912U 25833TY  26070.40836806  .00000000  00000+0  00000-0 0  9993
2 29912  75.0000 204.0000 0000000   0.0000 204.0000 12.90384021    10
CTC1_L_00403018-02
1 29913U 22034YQ  26070.40836806  .00000000  00000+0  00000-0 0  9994
2 29913  75.0000 204.0000 0000000   0.0000 294.0000 12.90384021    10
CTC1_L_00403018-03
1 29914U 23117HU  26070.40836806  .00000000  00000+0  00000-0 0  9998
2 29914  75.0000 204.0000 0000000   0.0000  24.0000 12.90384021    12
CTC1_L_00403018-04
1 29915U 26351PF  26070.40836806  .00000000  00000+0  00000-0 0  9992
2 29915  75.0000 204.0000 0000000   0.0000 114.0000 12.90384021    13
CTC1_L_00403019-01
1 29916U 25513MB  26070.40836806  .00000000  00000+0  00000-0 0  9992
2 29916  75.0000 216.0000 0000000   0.0000 216.0000 12.90384021    10
CTC1_L_00403019-02
1 29917U 25540HT  26070.40836806  .00000000  00000+0  00000-0 0  9993
2 29917  75.0000 216.0000 0000000   0.0000 306.0000 12.90384021    11
CTC1_L_00403019-03
1 29918U 23407KT  26070.40836806  .00000000  00000+0  00000-0 0  9994
2 29918  75.0000 216.0000 0000000   0.0000  36.0000 12.90384021    12
CTC1_L_00403019-04
1 29919U 22175VT  26070.40836806  .00000000  00000+0  00000-0 0  9996
2 29919  75.0000 216.0000 0000000   0.0000 126.0000 12.90384021    13
CTC1_L_00403020-01
1 29920U 26253PO  26070.40836806  .00000000  00000+0  00000-0 0  9999
2 29920  75.0000 228.0000 0000000   0.0000 228.0000 12.90384021    11
CTC1_L_00403020-02
1 29921U 22596NW  26070.40836806  .00000000  00000+0  00000-0 0  9996
2 29921  75.0000 228.0000 0000000   0.0000 318.0000 12.90384021    12
CTC1_L_00403020-03
1 29922U 22108NN  26070.40836806  .00000000  00000+0  00000-0 0  9996
2 29922  75.0000 228.0000 0000000   0.0000  48.0000 12.90384021    13
CTC1_L_00403020-04
1 29923U 22983GY  26070.40836806  .00000000  00000+0  00000-0 0  9998
2 29923  75.0000 228.0000 0000000   0.0000 138.0000 12.90384021    14
CTC1_L_00403021-01
1 29924U 25437PC  26070.40836806  .00000000  00000+0  00000-0 0  9996
2 29924  75.0000 240.0000 0000000   0.0000 240.0000 12.90384021    13
CTC1_L_00403021-02
1 29925U 23875UO  26070.40836806  .00000000  00000+0  00000-0 0  9991
2 29925  75.0000 240.0000 0000000   0.0000 330.0000 12.90384021    14
CTC1_L_00403021-03
1 29926U 26462PA  26070.40836806  .00000000  00000+0  00000-0 0  9997
2 29926  75.0000 240.0000 0000000   0.0000  60.0000 12.90384021    15
CTC1_L_00403021-04
1 29927U 22786OY  26070.40836806  .00000000  00000+0  00000-0 0  9993
2 29927  75.0000 240.0000 0000000   0.0000 150.0000 12.90384021    16
CTC1_L_00403022-01
1 29928U 25505EV  26070.40836806  .00000000  00000+0  00000-0 0  9996
2 29928  75.0000 252.0000 0000000   0.0000 252.0000 12.90384021    13
CTC1_L_00403022-02
1 29929U 22639XQ  26070.40836806  .00000000  00000+0  00000-0 0  9992
2 29929  75.0000 252.0000 0000000   0.0000 342.0000 12.90384021    14
CTC1_L_00403022-03
1 29930U 25148H   26070.40836806  .00000000  00000+0  00000-0 0  9992
2 29930  75.0000 252.0000 0000000   0.0000  72.0000 12.90384021    16
CTC1_L_00403022-04
1 29931U 25858EF  26070.40836806  .00000000  00000+0  00000-0 0  9991
2 29931  75.0000 252.0000 0000000   0.0000 162.0000 12.90384021    17
CTC1_L_00403023-01
1 29932U 23214SO  26070.40836806  .00000000  00000+0  00000-0 0  9996
2 29932  75.0000 264.0000 0000000   0.0000 264.0000 12.90384021    14
CTC1_L_00403023-02
1 29933U 26890FP  26070.40836806  .00000000  00000+0  00000-0 0  9990
2 29933  75.0000 264.0000 0000000   0.0000 354.0000 12.90384021    15
CTC1_L_00403023-03
1 29934U 22081RT  26070.40836806  .00000000  00000+0  00000-0 0  9999
2 29934  75.0000 264.0000 0000000   0.0000  84.0000 12.90384021    16
CTC1_L_00403023-04
1 29935U 22758TG  26070.40836806  .00000000  00000+0  00000-0 0  9991
2 29935  75.0000 264.0000 0000000   0.0000 174.0000 12.90384021    17
CTC1_L_00403024-01
1 29936U 26205RO  26070.40836806  .00000000  00000+0  00000-0 0  9993
2 29936  75.0000 276.0000 0000000   0.0000 276.0000 12.90384021    14
CTC1_L_00403024-02
1 29937U 22197PS  26070.40836806  .00000000  00000+0  00000-0 0  9990
2 29937  75.0000 276.0000 0000000   0.0000   6.0000 12.90384021    16
CTC1_L_00403024-03
1 29938U 22421MF  26070.40836806  .00000000  00000+0  00000-0 0  9991
2 29938  75.0000 276.0000 0000000   0.0000  96.0000 12.90384021    16
CTC1_L_00403024-04
1 29939U 23602DJ  26070.40836806  .00000000  00000+0  00000-0 0  9994
2 29939  75.0000 276.0000 0000000   0.0000 186.0000 12.90384021    17
CTC1_L_00403025-01
1 29940U 24264EO  26070.40836806  .00000000  00000+0  00000-0 0  9991
2 29940  75.0000 288.0000 0000000   0.0000 288.0000 12.90384021    15
CTC1_L_00403025-02
1 29941U 22921TY  26070.40836806  .00000000  00000+0  00000-0 0  9990
2 29941  75.0000 288.0000 0000000   0.0000  18.0000 12.90384021    17
CTC1_L_00403025-03
1 29942U 26533DV  26070.40836806  .00000000  00000+0  00000-0 0  9994
2 29942  75.0000 288.0000 0000000   0.0000 108.0000 12.90384021    18
CTC1_L_00403025-04
1 29943U 25080AK  26070.40836806  .00000000  00000+0  00000-0 0  9991
2 29943  75.0000 288.0000 0000000   0.0000 198.0000 12.90384021    18
CTC1_L_00403026-01
1 29944U 22276KF  26070.40836806  .00000000  00000+0  00000-0 0  9996
2 29944  75.0000 300.0000 0000000   0.0000 300.0000 12.90384021    19
CTC1_L_00403026-02
1 29945U 22748SZ  26070.40836806  .00000000  00000+0  00000-0 0  9991
2 29945  75.0000 300.0000 0000000   0.0000  30.0000 12.90384021    10
CTC1_L_00403026-03
1 29946U 25081BN  26070.40836806  .00000000  00000+0  00000-0 0  9995
2 29946  75.0000 300.0000 0000000   0.0000 120.0000 12.90384021    11
CTC1_L_00403026-04
1 29947U 25754XS  26070.40836806  .00000000  00000+0  00000-0 0  9993
2 29947  75.0000 300.0000 0000000   0.0000 210.0000 12.90384021    12
CTC1_L_00403027-01
1 29948U 24605ZB  26070.40836806  .00000000  00000+0  00000-0 0  9998
2 29948  75.0000 312.0000 0000000   0.0000 312.0000 12.90384021    19
CTC1_L_00403027-02
1 29949U 22028EH  26070.40836806  .00000000  00000+0  00000-0 0  9996
2 29949  75.0000 312.0000 0000000   0.0000  42.0000 12.90384021    10
CTC1_L_00403027-03
1 29950U 25584NV  26070.40836806  .00000000  00000+0  00000-0 0  9998
2 29950  75.0000 312.0000 0000000   0.0000 132.0000 12.90384021    12
CTC1_L_00403027-04
1 29951U 22059IC  26070.40836806  .00000000  00000+0  00000-0 0  9993
2 29951  75.0000 312.0000 0000000   0.0000 222.0000 12.90384021    13
CTC1_L_00403028-01
1 29952U 24363BL  26070.40836806  .00000000  00000+0  00000-0 0  9994
2 29952  75.0000 324.0000 0000000   0.0000 324.0000 12.90384021    10
CTC1_L_00403028-02
1 29953U 25952PX  26070.40836806  .00000000  00000+0  00000-0 0  9990
2 29953  75.0000 324.0000 0000000   0.0000  54.0000 12.90384021    11
CTC1_L_00403028-03
1 29954U 23957MO  26070.40836806  .00000000  00000+0  00000-0 0  9994
2 29954  75.0000 324.0000 0000000   0.0000 144.0000 12.90384021    12
CTC1_L_00403028-04
1 29955U 26144MD  26070.40836806  .00000000  00000+0  00000-0 0  9996
2 29955  75.0000 324.0000 0000000   0.0000 234.0000 12.90384021    13
CTC1_L_00403029-01
1 29956U 24054LP  26070.40836806  .00000000  00000+0  00000-0 0  9995
2 29956  75.0000 336.0000 0000000   0.0000 336.0000 12.90384021    10
CTC1_L_00403029-02
1 29957U 26957TB  26070.40836806  .00000000  00000+0  00000-0 0  9990
2 29957  75.0000 336.0000 0000000   0.0000  66.0000 12.90384021    11
CTC1_L_00403029-03
1 29958U 24510M   26070.40836806  .00000000  00000+0  00000-0 0  9994
2 29958  75.0000 336.0000 0000000   0.0000 156.0000 12.90384021    12
CTC1_L_00403029-04
1 29959U 22593JC  26070.40836806  .00000000  00000+0  00000-0 0  9994
2 29959  75.0000 336.0000 0000000   0.0000 246.0000 12.90384021    13
CTC1_L_00403030-01
1 29960U 22611TP  26070.40836806  .00000000  00000+0  00000-0 0  9997
2 29960  75.0000 348.0000 0000000   0.0000 348.0000 12.90384021    11
CTC1_L_00403030-02
1 29961U 24952JS  26070.40836806  .00000000  00000+0  00000-0 0  9998
2 29961  75.0000 348.0000 0000000   0.0000  78.0000 12.90384021    12
CTC1_L_00403030-03
1 29962U 26503JL  26070.40836806  .00000000  00000+0  00000-0 0  9993
2 29962  75.0000 348.0000 0000000   0.0000 168.0000 12.90384021    13
CTC1_L_00403030-04
1 29963U 24112UG  26070.40836806  .00000000  00000+0  00000-0 0  9998
2 29963  75.0000 348.0000 0000000   0.0000 258.0000 12.90384021    14
